{
  "norad_id": 67001,
  "name": "2025-292J",
  "history": [
    {
      "epoch": "2026-03-28T20:23:45.269664",
      "apogee_km": 558.8061279615649,
      "perigee_km": 539.5599546907479,
      "latitude_deg": 73.45064013257722,
      "longitude_deg": -118.31636703992262,
      "semi_major_axis_km": 6927.320041326156,
      "eccentricity": 0.00138915,
      "inclination_deg": 97.6382,
      "raan_deg": 164.3954,
      "arg_perigee_deg": 267.5985,
      "mean_anomaly_deg": 92.3652,
      "mean_motion_rev_day": 15.05756974
    },
    {
      "epoch": "2026-03-29T04:22:13.079712",
      "apogee_km": 558.7970147928872,
      "perigee_km": 539.5225042891407,
      "latitude_deg": 6.494916190535102,
      "longitude_deg": -86.41880032001063,
      "semi_major_axis_km": 6927.296759541014,
      "eccentricity": 0.0013912,
      "inclination_deg": 97.638,
      "raan_deg": 164.7244,
      "arg_perigee_deg": 266.3286,
      "mean_anomaly_deg": 93.635,
      "mean_motion_rev_day": 15.05764565
    }
  ]
}